{
  "type": "FeatureCollection",
  "features": [
    {
      "type": "Feature",
      "properties": { "ward": "Rohini" },
      "geometry": {
        "type": "Polygon",
        "coordinates": [[
          [77.09,28.75],
          [77.13,28.76],
          [77.17,28.74],
          [77.18,28.71],
          [77.15,28.69],
          [77.11,28.70],
          [77.08,28.73],
          [77.09,28.75]
        ]]
      }
    },
    {
      "type": "Feature",
      "properties": { "ward": "Karol Bagh" },
      "geometry": {
        "type": "Polygon",
        "coordinates": [[
          [77.17,28.67],
          [77.20,28.68],
          [77.24,28.66],
          [77.25,28.63],
          [77.22,28.61],
          [77.18,28.62],
          [77.16,28.65],
          [77.17,28.67]
        ]]
      }
    },
    {
      "type": "Feature",
      "properties": { "ward": "Minto Road (ITO – Civic Centre)" },
      "geometry": {
        "type": "Polygon",
        "coordinates": [[
          [77.22,28.65],
          [77.25,28.66],
          [77.28,28.64],
          [77.29,28.61],
          [77.26,28.59],
          [77.23,28.60],
          [77.21,28.63],
          [77.22,28.65]
        ]]
      }
    },
    {
      "type": "Feature",
      "properties": { "ward": "Anand Vihar" },
      "geometry": {
        "type": "Polygon",
        "coordinates": [[
          [77.29,28.66],
          [77.33,28.67],
          [77.36,28.65],
          [77.37,28.62],
          [77.34,28.60],
          [77.30,28.61],
          [77.28,28.64],
          [77.29,28.66]
        ]]
      }
    },
    {
      "type": "Feature",
      "properties": { "ward": "Lajpat Nagar" },
      "geometry": {
        "type": "Polygon",
        "coordinates": [[
          [77.21,28.58],
          [77.24,28.59],
          [77.27,28.57],
          [77.28,28.54],
          [77.25,28.52],
          [77.22,28.53],
          [77.20,28.56],
          [77.21,28.58]
        ]]
      }
    },
    {
      "type": "Feature",
      "properties": { "ward": "Dwarka" },
      "geometry": {
        "type": "Polygon",
        "coordinates": [[
          [77.03,28.63],
          [77.06,28.64],
          [77.09,28.62],
          [77.10,28.59],
          [77.07,28.57],
          [77.04,28.58],
          [77.02,28.61],
          [77.03,28.63]
        ]]
      }
    },
    {
      "type": "Feature",
      "properties": { "ward": "Saket" },
      "geometry": {
        "type": "Polygon",
        "coordinates": [[
          [77.18,28.52],
          [77.21,28.53],
          [77.24,28.51],
          [77.25,28.48],
          [77.22,28.46],
          [77.19,28.47],
          [77.17,28.50],
          [77.18,28.52]
        ]]
      }
    }
  ]
}
